[{"OBJECT_NAME":"STARLINK-1830","OBJECT_ID":"2020-073BK","EPOCH":"2026-03-10T00:00:02.999808","MEAN_MOTION":15.55242879,"ECCENTRICITY":0.0001668,"INCLINATION":53.0428,"RA_OF_ASC_NODE":181.8911,"ARG_OF_PERICENTER":29.9698,"MEAN_ANOMALY":284.4925,"EPHEMERIS_TYPE":0,"CLASSIFICATION_TYPE":"U","NORAD_CAT_ID":46727,"ELEMENT_SET_NO":999,"REV_AT_EPOCH":587,"BSTAR":0.0015501406,"MEAN_MOTION_DOT":0.00107729,"MEAN_MOTION_DDOT":0},{"OBJECT_NAME":"OBJECT D","OBJECT_ID":"2018-102D","EPOCH":"2026-03-09T22:35:58.191072","MEAN_MOTION":15.561578,"ECCENTRICITY":0.00052317,"INCLINATION":97.3476,"RA_OF_ASC_NODE":154.4675,"ARG_OF_PERICENTER":78.3791,"MEAN_ANOMALY":281.8051,"EPHEMERIS_TYPE":0,"CLASSIFICATION_TYPE":"U","NORAD_CAT_ID":43834,"ELEMENT_SET_NO":999,"REV_AT_EPOCH":40176,"BSTAR":0.00069598095,"MEAN_MOTION_DOT":0.00048828,"MEAN_MOTION_DDOT":0}]
